{"fetched_at":"2026-03-29T16:36:15Z","count":15609,"tles":[{"name":"STARLINK-1770","line1":"1 46383U 20062BL  26087.75676692  .00072586  00000+0  67304-3 0  9995","line2":"2 46383  53.0400 222.0306 0004612 335.0048  25.0743 15.66833183308151","category":"Starlink"}]}